NORAD_CAT_ID,OBJECT_NAME,OBJECT_TYPE,EPOCH,MEAN_MOTION,ECCENTRICITY,INCLINATION,RA_OF_ASC_NODE,ARG_OF_PERICENTER,MEAN_ANOMALY,BSTAR,MEAN_MOTION_DOT,MEAN_MOTION_DDOT,TLE_LINE0,TLE_LINE1,TLE_LINE2,SEMIMAJOR_AXIS,PERIOD,APOGEE,PERIGEE,DECAYED
53172.0,STARLINK-4299,PAYLOAD,2022-09-10 12:00:00,15.73192354,0.0002894,53.2161,135.0829,14.1311,218.1692,-2.8808000000000013e-05,-4.663e-05,0.0,0 STARLINK-4299,1 53172U 22083AS  22253.50001157 -.00004663  00000-0 -28808-4 0  9997,2 53172  53.2161 135.0829 0002894  14.1311 218.1692 15.73192354  9299,6727.917,91.534,351.72900000000016,347.835,0.0
53172.0,STARLINK-4299,PAYLOAD,2022-09-10 14:00:01,15.73192548,0.0002833999999999,53.2159,134.6702,13.5573,330.9732,-6.349e-05,-9.522e-05,0.0,0 STARLINK-4299,1 53172U 22083AS  22253.58334491 -.00009522  00000-0 -63490-4 0  9990,2 53172  53.2159 134.6702 0002834  13.5573 330.9732 15.73192548  1305,6727.916,91.534,351.68800000000016,347.875,0.0
53172.0,STARLINK-4299,PAYLOAD,2022-09-10 22:00:00,15.73212954,0.000299,53.2163,133.0182,11.5499,61.8936,-0.00054186,-0.00076048,0.0,0 STARLINK-4299,1 53172U 22083AS  22253.91667824 -.00076048  00000-0 -54186-3 0  9994,2 53172  53.2163 133.0182 0002990  11.5499  61.8936 15.73212954  1303,6727.858,91.532,351.735,347.712,0.0
53172.0,STARLINK-4299,PAYLOAD,2022-09-11 04:00:00,15.73261365,0.0003018999999999,53.2163,131.7782,9.6672,40.4581,-0.0030052,-0.00404006,0.0,0 STARLINK-4299,1 53172U 22083AS  22254.16667824 -.00404006  00000-0 -30052-2 0  9996,2 53172  53.2163 131.7782 0003019   9.6672  40.4581 15.73261365  9394,6727.72,91.53,351.616,347.55400000000014,0.0
53172.0,STARLINK-4299,PAYLOAD,2022-09-11 14:00:01,15.72956557,0.0002751,53.2173,129.7078,10.2946,240.824,-0.0084562999999999,-0.01057223,0.0,0 STARLINK-4299,1 53172U 22083AS  22254.58334491 -.01057223  00000-0 -84563-2 0  9995,2 53172  53.2173 129.7078 0002751  10.2946 240.8240 15.72956557  9463,6728.589,91.547,352.305,348.603,0.0
53172.0,STARLINK-4299,PAYLOAD,2022-09-11 22:00:00,15.7219592,0.0002972,53.2174,128.0614,8.8281,330.4584,-0.0087225,-0.01055706,0.0,0 STARLINK-4299,1 53172U 22083AS  22254.91667824 -.01055706  00000-0 -87225-2 0  9993,2 53172  53.2174 128.0614 0002972   8.8281 330.4584 15.72195920  1303,6730.759,91.592,354.625,350.624,0.0
53172.0,STARLINK-4299,PAYLOAD,2022-09-12 14:00:01,15.70678129,0.000324,53.2175,124.7689,2.2327,150.6526,-0.0093201,-0.01057445,0.0,0 STARLINK-4299,1 53172U 22083AS  22255.58334491 -.01057445  00000-0 -93201-2 0  9991,2 53172  53.2175 124.7689 0003240   2.2327 150.6526 15.70678129  1300,6735.095,91.68,359.142,354.778,0.0
53172.0,STARLINK-4299,PAYLOAD,2022-09-12 22:00:00,15.69882801,0.0002578,53.2171,123.1304,284.0093,314.3186,-0.0091074,-0.0100454,0.0,0 STARLINK-4299,1 53172U 22083AS  22255.91667824 -.01004540  00000-0 -91074-2 0  9991,2 53172  53.2171 123.1304 0002578 284.0093 314.3186 15.69882801  1309,6737.369000000002,91.727,360.971,357.497,0.0
53172.0,STARLINK-4299,PAYLOAD,2022-09-13 06:00:00,15.69150155,9.41e-05,53.2172,121.4873,347.6722,335.1634,-0.0097732999999999,-0.01040798,0.0,0 STARLINK-4299,1 53172U 22083AS  22256.25001157 -.01040798  00000-0 -97733-2 0  9993,2 53172  53.2172 121.4873 0000941 347.6722 335.1634 15.69150155  9722,6739.465999999999,91.769,361.965,360.697,0.0
53172.0,STARLINK-4299,PAYLOAD,2022-09-13 14:00:01,15.68396114,0.0001371,53.2173,119.8469,37.3119,9.1269,-0.010184,-0.01050215,0.0,0 STARLINK-4299,1 53172U 22083AS  22256.58334491 -.01050215  00000-0 -10184-1 0  9998,2 53172  53.2173 119.8469 0001371  37.3119   9.1269 15.68396114  1300,6741.626,91.814,364.415,362.567,0.0
53172.0,STARLINK-4299,PAYLOAD,2022-09-13 20:00:01,15.67828629,0.0001383,53.2174,118.6206,41.0784,337.4632,-0.010456,-0.01052986,0.0,0 STARLINK-4299,1 53172U 22083AS  22256.83334491 -.01052986  00000-0 -10456-1 0  9995,2 53172  53.2174 118.6206 0001383  41.0784 337.4632 15.67828629  9815,6743.253000000002,91.847,366.05,364.185,0.0
53172.0,STARLINK-4299,PAYLOAD,2022-09-13 22:00:00,15.67637897,0.0001571,53.2173,118.2121,43.2524,85.8767,-0.01052,-0.01051402,0.0,0 STARLINK-4299,1 53172U 22083AS  22256.91667824 -.01051402  00000-0 -10520-1 0  9997,2 53172  53.2173 118.2121 0001571  43.2524  85.8767 15.67637897  1305,6743.8,91.858,366.724,364.605,0.0
53172.0,STARLINK-4299,PAYLOAD,2022-09-14 14:00:01,15.66117701,0.0001305,53.2176,114.9416,51.2455,240.5312,-0.011163,-0.01048687,0.0,0 STARLINK-4299,1 53172U 22083AS  22257.58334491 -.01048687  00000-0 -11163-1 0  9997,2 53172  53.2176 114.9416 0001305  51.2455 240.5312 15.66117701  1307,6748.163000000001,91.947,370.909,369.148,0.0
53172.0,STARLINK-4299,PAYLOAD,2022-09-14 22:00:00,15.65421267,0.000106,53.2147,113.3192,52.5557,319.171,0.00018544,0.00018353,0.0,0 STARLINK-4299,1 53172U 22083AS  22257.91667824  .00018353  00000-0  18544-3 0  9999,2 53172  53.2147 113.3192 0001060  52.5557 319.1710 15.65421267  1303,6750.1640000000025,91.988,372.745,371.314,0.0
53172.0,STARLINK-4299,PAYLOAD,2022-09-15 06:00:00,15.64579433,0.0001345,53.2168,111.6827,51.3081,39.4715,-0.011535,-0.0102148,0.0,0 STARLINK-4299,1 53172U 22083AS  22258.25001157 -.01021480  00000-0 -11535-1 0  9997,2 53172  53.2168 111.6827 0001345  51.3081  39.4715 15.64579433 10043,6752.5859999999975,92.038,375.359,373.542,0.0
53172.0,STARLINK-4299,PAYLOAD,2022-09-15 14:00:01,15.63897069,0.0001456,53.2166,110.0539,61.7506,107.1161,-0.013082,-0.01134337,0.0,0 STARLINK-4299,1 53172U 22083AS  22258.58334491 -.01134337  00000-0 -13082-1 0  9998,2 53172  53.2166 110.0539 0001456  61.7506 107.1161 15.63897069  1308,6754.55,92.078,377.398,375.431,0.0
53172.0,STARLINK-4299,PAYLOAD,2022-09-15 22:00:00,15.63080359,0.0001393,53.2173,108.4292,55.6516,190.46400000000003,-0.012611,-0.01065279,0.0,0 STARLINK-4299,1 53172U 22083AS  22258.91667824 -.01065279  00000-0 -12611-1 0  9999,2 53172  53.2173 108.4292 0001393  55.6516 190.4640 15.63080359 10141,6756.901999999999,92.126,379.709,377.826,0.0
53172.0,STARLINK-4299,PAYLOAD,2022-09-16 14:00:01,15.61559865,0.0001145,53.2175,105.1809,62.7955,335.0159,-0.0133419999999999,-0.01061969,0.0,0 STARLINK-4299,1 53172U 22083AS  22259.58334491 -.01061969  00000-0 -13342-1 0  9998,2 53172  53.2175 105.1809 0001145  62.7955 335.0159 15.61559865 10246,6761.288000000001,92.215,383.927,382.379,0.0
53172.0,STARLINK-4299,PAYLOAD,2022-09-16 22:00:00,15.60802066,0.0001455,53.2176,103.5627,49.9017,62.386,-0.013777,-0.01064597,0.0,0 STARLINK-4299,1 53172U 22083AS  22259.91667824 -.01064597  00000-0 -13777-1 0  9996,2 53172  53.2176 103.5627 0001455  49.9017  62.3860 15.60802066  1306,6763.476,92.26,386.325,384.357,0.0
53172.0,STARLINK-4299,PAYLOAD,2022-09-17 06:00:00,15.60043491,0.0001323,53.2175,101.9428,64.197,121.6569,-0.014215,-0.0106648,0.0,0 STARLINK-4299,1 53172U 22083AS  22260.25001157 -.01066480  00000-0 -14215-1 0  9997,2 53172  53.2175 101.9428 0001323  64.1970 121.6569 15.60043491 10356,6765.668000000002,92.305,388.42800000000005,386.638,0.0
53172.0,STARLINK-4299,PAYLOAD,2022-09-17 14:00:01,15.59282223,0.0001269,53.2176,100.3255,65.4955,193.0116,-0.014568,-0.01061894,0.0,0 STARLINK-4299,1 53172U 22083AS  22260.58334491 -.01061894  00000-0 -14568-1 0  9998,2 53172  53.2176 100.3255 0001269  65.4955 193.0116 15.59282223  1306,6767.87,92.35,390.594,388.876,0.0
53172.0,STARLINK-4299,PAYLOAD,2022-09-17 22:00:00,15.58524238,0.0001268,53.2175,98.7127,54.2096,276.0362,-0.01505,-0.01065395,0.0,0 STARLINK-4299,1 53172U 22083AS  22260.91667824 -.01065395  00000-0 -15050-1 0  9991,2 53172  53.2175  98.7127 0001268  54.2096 276.0362 15.58524238  1303,6770.064,92.395,392.788,391.071,0.0
53172.0,STARLINK-4299,PAYLOAD,2022-09-18 06:00:00,15.57763686,0.0001139999999999,53.2174,97.0983,58.8292,342.2454,-0.015461,-0.01063499,0.0,0 STARLINK-4299,1 53172U 22083AS  22261.25001157 -.01063499  00000-0 -15461-1 0  9999,2 53172  53.2174  97.0983 0001140  58.8292 342.2454 15.57763686 10502,6772.268,92.44,394.905,393.361,0.0
53172.0,STARLINK-4299,PAYLOAD,2022-09-18 14:00:01,15.57002276,0.0001411,53.2175,95.4865,51.8332,59.2219,-0.01585,-0.01059832,0.0,0 STARLINK-4299,1 53172U 22083AS  22261.58335648 -.01059832  00000-0 -15850-1 0  9998,2 53172  53.2175  95.4865 0001411  51.8332  59.2219 15.57002276  1306,6774.475,92.485,397.296,395.385,0.0
53172.0,STARLINK-4299,PAYLOAD,2022-09-18 22:00:00,15.56242515,0.000149,53.2175,93.8792,53.7996,126.1915,-0.016294,-0.01059025,0.0,0 STARLINK-4299,1 53172U 22083AS  22261.91667824 -.01059025  00000-0 -16294-1 0  9996,2 53172  53.2175  93.8792 0001490  53.7996 126.1915 15.56242515  1309,6776.68,92.531,399.555,397.535,0.0
53172.0,STARLINK-4299,PAYLOAD,2022-09-19 06:00:02,15.5548669,0.0001252999999999,53.2175,92.2702,68.3241,179.8211,-0.016873,-0.0106547999999999,0.0,0 STARLINK-4299,1 53172U 22083AS  22262.25002315 -.01065480  00000-0 -16873-1 0  9997,2 53172  53.2175  92.2702 0001253  68.3241 179.8211 15.55486690 10661,6778.875,92.576,401.59,399.891,0.0
53172.0,STARLINK-4299,PAYLOAD,2022-09-19 14:00:01,15.5472541,0.0001217,53.2176,90.6642,60.6997,254.5579,-0.017282,-0.01061346,0.0,0 STARLINK-4299,1 53172U 22083AS  22262.58334491 -.01061346  00000-0 -17282-1 0  9998,2 53172  53.2176  90.6642 0001217  60.6997 254.5579 15.54725410  1304,6781.0880000000025,92.621,403.778,402.128,0.0
53172.0,STARLINK-4299,PAYLOAD,2022-09-19 22:00:00,15.5396565,0.0001378,53.2176,89.0622,45.0922,336.4289,-0.01778,-0.01061796,0.0,0 STARLINK-4299,1 53172U 22083AS  22262.91667824 -.01061796  00000-0 -17780-1 0  9996,2 53172  53.2176  89.0622 0001378  45.0922 336.4289 15.53965650  1306,6783.2980000000025,92.666,406.098,404.228,0.0
53172.0,STARLINK-4299,PAYLOAD,2022-09-20 06:00:00,15.53205111,0.0001298,53.2176,87.4585,53.3598,33.5141,-0.018243,-0.01059698,0.0,0 STARLINK-4299,1 53172U 22083AS  22263.25001157 -.01059698  00000-0 -18243-1 0  9998,2 53172  53.2176  87.4585 0001298  53.3598  33.5141 15.53205111 10826,6785.512,92.712,408.258,406.496,0.0
